start=new Date('2022-02-03T00:00:00.000Z').valueOf();
sats=[{"RA_OF_ASC_NODE":"163.9864","REV_AT_EPOCH":"6654","MEAN_ELEMENT_THEORY":"SGP4","GP_ID":"195191681","NORAD_CAT_ID":"47146","EPHEMERIS_TYPE":"0","OBJECT_TYPE":"PAYLOAD","INCLINATION":"53.0557","SEMIMAJOR_AXIS":"6738.233","FILE":"3290513","TLE_LINE1":"1 47146U 20088AA  22033.69111004  .00505342  00000-0  39478-2 0  9994","DECAY_DATE":null,"CENTER_NAME":"EARTH","LAUNCH_DATE":"2020-11-25","ARG_OF_PERICENTER":"7.7843","TLE_LINE2":"2 47146  53.0557 163.9864 0001544   7.7843 352.3197 15.69580859 66546","RCS_SIZE":"LARGE","ECCENTRICITY":"0.00015440","MEAN_MOTION":"15.69580859","COUNTRY_CODE":"US","MEAN_MOTION_DDOT":"0.0000000000000","APOAPSIS":"361.139","ELEMENT_SET_NO":"999","PERIOD":"91.744","REF_FRAME":"TEME","CLASSIFICATION_TYPE":"U","SITE":"AFETR","PERIAPSIS":"359.058","TIME_SYSTEM":"UTC","EPOCH":"2022-02-02T16:35:11.907456","MEAN_MOTION_DOT":"0.00505342","MEAN_ANOMALY":"352.3197","BSTAR":"0.00394780000000","OBJECT_NAME":"STARLINK-1859","OBJECT_ID":"2020-088AA"},{"MEAN_ELEMENT_THEORY":"SGP4","GP_ID":"195192932","RA_OF_ASC_NODE":"177.3768","REV_AT_EPOCH":"6636","EPHEMERIS_TYPE":"0","NORAD_CAT_ID":"47147","INCLINATION":"53.0542","SEMIMAJOR_AXIS":"6925.379","OBJECT_TYPE":"PAYLOAD","FILE":"3290513","DECAY_DATE":null,"TLE_LINE1":"1 47147U 20088AB  22033.70243949  .00001937  00000-0  14894-3 0  9998","ARG_OF_PERICENTER":"63.7975","LAUNCH_DATE":"2020-11-25","CENTER_NAME":"EARTH","MEAN_MOTION":"15.06390190","ECCENTRICITY":"0.00015610","MEAN_MOTION_DDOT":"0.0000000000000","COUNTRY_CODE":"US","RCS_SIZE":"LARGE","TLE_LINE2":"2 47147  53.0542 177.3768 0001561  63.7975 296.3175 15.06390190 66361","CLASSIFICATION_TYPE":"U","ELEMENT_SET_NO":"999","APOAPSIS":"548.325","REF_FRAME":"TEME","PERIOD":"95.593","TIME_SYSTEM":"UTC","EPOCH":"2022-02-02T16:51:30.771936","OBJECT_ID":"2020-088AB","OBJECT_NAME":"STARLINK-1860","MEAN_MOTION_DOT":"0.00001937","MEAN_ANOMALY":"296.3175","BSTAR":"0.00014894000000","SITE":"AFETR","PERIAPSIS":"546.163"},{"SITE":"AFETR","PERIAPSIS":"546.305","EPOCH":"2022-02-02T21:02:17.376864","TIME_SYSTEM":"UTC","MEAN_ANOMALY":"291.8570","MEAN_MOTION_DOT":"0.00001698","BSTAR":"0.00013289000000","OBJECT_ID":"2020-088AC","OBJECT_NAME":"STARLINK-1861","APOAPSIS":"548.124","ELEMENT_SET_NO":"999","PERIOD":"95.592","REF_FRAME":"TEME","CLASSIFICATION_TYPE":"U","TLE_LINE2":"2 47148  53.0559 166.5971 0001313  68.2559 291.8570 15.06399687 66526","RCS_SIZE":"LARGE","ECCENTRICITY":"0.00013130","MEAN_MOTION":"15.06399687","COUNTRY_CODE":"US","MEAN_MOTION_DDOT":"0.0000000000000","CENTER_NAME":"EARTH","LAUNCH_DATE":"2020-11-25","ARG_OF_PERICENTER":"68.2559","FILE":"3290513","TLE_LINE1":"1 47148U 20088AC  22033.87659001  .00001698  00000-0  13289-3 0  9998","DECAY_DATE":null,"OBJECT_TYPE":"PAYLOAD","INCLINATION":"53.0559","SEMIMAJOR_AXIS":"6925.350","NORAD_CAT_ID":"47148","EPHEMERIS_TYPE":"0","RA_OF_ASC_NODE":"166.5971","REV_AT_EPOCH":"6652","MEAN_ELEMENT_THEORY":"SGP4","GP_ID":"195192683"},{"CLASSIFICATION_TYPE":"U","PERIOD":"95.593","REF_FRAME":"TEME","APOAPSIS":"548.279","ELEMENT_SET_NO":"999","MEAN_MOTION_DOT":"0.00000730","BSTAR":"0.00006788200000","MEAN_ANOMALY":"276.2750","OBJECT_NAME":"STARLINK-1862","OBJECT_ID":"2020-088AD","TIME_SYSTEM":"UTC","EPOCH":"2022-02-02T16:56:48.931296","PERIAPSIS":"546.199","SITE":"AFETR","LAUNCH_DATE":"2020-11-25","ARG_OF_PERICENTER":"83.8410","CENTER_NAME":"EARTH","COUNTRY_CODE":"US","MEAN_MOTION_DDOT":"0.0000000000000","ECCENTRICITY":"0.00015020","MEAN_MOTION":"15.06391621","TLE_LINE2":"2 47149  53.0539 177.3501 0001502  83.8410 276.2750 15.06391621 67093","RCS_SIZE":"LARGE","INCLINATION":"53.0539","SEMIMAJOR_AXIS":"6925.374","OBJECT_TYPE":"PAYLOAD","TLE_LINE1":"1 47149U 20088AD  22033.70612189  .00000730  00000-0  67882-4 0  9992","DECAY_DATE":null,"FILE":"3290513","GP_ID":"195191931","MEAN_ELEMENT_THEORY":"SGP4","REV_AT_EPOCH":"6709","RA_OF_ASC_NODE":"177.3501","NORAD_CAT_ID":"47149","EPHEMERIS_TYPE":"0"},{"GP_ID":"195192181","MEAN_ELEMENT_THEORY":"SGP4","REV_AT_EPOCH":"6652","RA_OF_ASC_NODE":"166.7823","EPHEMERIS_TYPE":"0","NORAD_CAT_ID":"47150","SEMIMAJOR_AXIS":"6925.352","INCLINATION":"53.0535","OBJECT_TYPE":"PAYLOAD","DECAY_DATE":null,"TLE_LINE1":"1 47150U 20088AE  22033.83236138  .00001280  00000-0  10484-3 0  9990","FILE":"3290513","ARG_OF_PERICENTER":"86.5131","LAUNCH_DATE":"2020-11-25","CENTER_NAME":"EARTH","MEAN_MOTION_DDOT":"0.0000000000000","COUNTRY_CODE":"US","MEAN_MOTION":"15.06398918","ECCENTRICITY":"0.00016390","TLE_LINE2":"2 47150  53.0535 166.7823 0001639  86.5131 273.6045 15.06398918 66522","RCS_SIZE":"LARGE","CLASSIFICATION_TYPE":"U","REF_FRAME":"TEME","PERIOD":"95.592","ELEMENT_SET_NO":"999","APOAPSIS":"548.352","OBJECT_ID":"2020-088AE","OBJECT_NAME":"STARLINK-1863","MEAN_ANOMALY":"273.6045","MEAN_MOTION_DOT":"0.00001280","BSTAR":"0.00010484000000","TIME_SYSTEM":"UTC","EPOCH":"2022-02-02T19:58:36.023232","PERIAPSIS":"546.082","SITE":"AFETR"},{"GP_ID":"195192433","MEAN_ELEMENT_THEORY":"SGP4","REV_AT_EPOCH":"6635","RA_OF_ASC_NODE":"177.3865","NORAD_CAT_ID":"47151","EPHEMERIS_TYPE":"0","SEMIMAJOR_AXIS":"6925.362","INCLINATION":"53.0548","OBJECT_TYPE":"PAYLOAD","TLE_LINE1":"1 47151U 20088AF  22033.69874969  .00001170  00000-0  97409-4 0  9996","DECAY_DATE":null,"FILE":"3290513","LAUNCH_DATE":"2020-11-25","ARG_OF_PERICENTER":"79.9281","CENTER_NAME":"EARTH","COUNTRY_CODE":"US","MEAN_MOTION_DDOT":"0.0000000000000","ECCENTRICITY":"0.00015530","MEAN_MOTION":"15.06395542","RCS_SIZE":"LARGE","TLE_LINE2":"2 47151  53.0548 177.3865 0001553  79.9281 280.1883 15.06395542 66352","CLASSIFICATION_TYPE":"U","PERIOD":"95.592","REF_FRAME":"TEME","APOAPSIS":"548.303","ELEMENT_SET_NO":"999","MEAN_MOTION_DOT":"0.00001170","BSTAR":"0.00009740900000","MEAN_ANOMALY":"280.1883","OBJECT_ID":"2020-088AF","OBJECT_NAME":"STARLINK-1864","EPOCH":"2022-02-02T16:46:11.973216","TIME_SYSTEM":"UTC","PERIAPSIS":"546.152","SITE":"AFETR"},{"OBJECT_TYPE":"PAYLOAD","INCLINATION":"53.0546","SEMIMAJOR_AXIS":"6925.363","DECAY_DATE":null,"TLE_LINE1":"1 47152U 20088AG  22033.68400604  .00000417  00000-0  46904-4 0  9994","FILE":"3290513","REV_AT_EPOCH":"6635","RA_OF_ASC_NODE":"177.4618","GP_ID":"195193183","MEAN_ELEMENT_THEORY":"SGP4","EPHEMERIS_TYPE":"0","NORAD_CAT_ID":"47152","REF_FRAME":"TEME","PERIOD":"95.592","ELEMENT_SET_NO":"999","APOAPSIS":"548.540","CLASSIFICATION_TYPE":"U","PERIAPSIS":"545.916","SITE":"AFETR","OBJECT_ID":"2020-088AG","OBJECT_NAME":"STARLINK-1866","BSTAR":"0.00004690400000","MEAN_MOTION_DOT":"0.00000417","MEAN_ANOMALY":"275.0968","TIME_SYSTEM":"UTC","EPOCH":"2022-02-02T16:24:58.121856","CENTER_NAME":"EARTH","ARG_OF_PERICENTER":"85.0237","LAUNCH_DATE":"2020-11-25","TLE_LINE2":"2 47152  53.0546 177.4618 0001895  85.0237 275.0968 15.06395333 66351","RCS_SIZE":"LARGE","MEAN_MOTION_DDOT":"0.0000000000000","COUNTRY_CODE":"US","MEAN_MOTION":"15.06395333","ECCENTRICITY":"0.00018950"},{"CLASSIFICATION_TYPE":"U","ELEMENT_SET_NO":"999","APOAPSIS":"548.229","REF_FRAME":"TEME","PERIOD":"95.592","EPOCH":"2022-02-02T20:35:03.482880","TIME_SYSTEM":"UTC","OBJECT_NAME":"STARLINK-1867","OBJECT_ID":"2020-088AH","MEAN_ANOMALY":"276.4252","MEAN_MOTION_DOT":"0.00001258","BSTAR":"0.00010332000000","SITE":"AFETR","PERIAPSIS":"546.165","ARG_OF_PERICENTER":"83.6907","LAUNCH_DATE":"2020-11-25","CENTER_NAME":"EARTH","MEAN_MOTION":"15.06405423","ECCENTRICITY":"0.00014900","MEAN_MOTION_DDOT":"0.0000000000000","COUNTRY_CODE":"US","RCS_SIZE":"LARGE","TLE_LINE2":"2 47153  53.0537 181.6712 0001490  83.6907 276.4252 15.06405423 66312","INCLINATION":"53.0537","SEMIMAJOR_AXIS":"6925.332","OBJECT_TYPE":"PAYLOAD","FILE":"3290513","DECAY_DATE":null,"TLE_LINE1":"1 47153U 20088AH  22033.85767920  .00001258  00000-0  10332-3 0  9990","MEAN_ELEMENT_THEORY":"SGP4","GP_ID":"195191432","RA_OF_ASC_NODE":"181.6712","REV_AT_EPOCH":"6631","EPHEMERIS_TYPE":"0","NORAD_CAT_ID":"47153"},{"OBJECT_TYPE":"PAYLOAD","SEMIMAJOR_AXIS":"6925.375","INCLINATION":"53.0534","DECAY_DATE":null,"TLE_LINE1":"1 47154U 20088AJ  22033.65544365 -.00000382  00000-0 -67684-5 0  9998","FILE":"3290513","REV_AT_EPOCH":"6649","RA_OF_ASC_NODE":"167.5763","GP_ID":"195191682","MEAN_ELEMENT_THEORY":"SGP4","NORAD_CAT_ID":"47154","EPHEMERIS_TYPE":"0","REF_FRAME":"TEME","PERIOD":"95.593","ELEMENT_SET_NO":"999","APOAPSIS":"548.247","CLASSIFICATION_TYPE":"U","PERIAPSIS":"546.233","SITE":"AFETR","OBJECT_ID":"2020-088AJ","OBJECT_NAME":"STARLINK-1868","BSTAR":"-0.00000676840000","MEAN_MOTION_DOT":"-0.00000382","MEAN_ANOMALY":"277.7774","EPOCH":"2022-02-02T15:43:50.331360","TIME_SYSTEM":"UTC","CENTER_NAME":"EARTH","ARG_OF_PERICENTER":"82.3380","LAUNCH_DATE":"2020-11-25","RCS_SIZE":"LARGE","TLE_LINE2":"2 47154  53.0534 167.5763 0001454  82.3380 277.7774 15.06391383 66491","MEAN_MOTION_DDOT":"0.0000000000000","COUNTRY_CODE":"US","MEAN_MOTION":"15.06391383","ECCENTRICITY":"0.00014540"},{"DECAY_DATE":null,"TLE_LINE1":"1 47155U 20088AK  22033.69047565 -.00000297  00000-0 -10191-5 0  9999","FILE":"3290513","OBJECT_TYPE":"PAYLOAD","INCLINATION":"53.0551","SEMIMAJOR_AXIS":"6925.388","EPHEMERIS_TYPE":"0","NORAD_CAT_ID":"47155","REV_AT_EPOCH":"6621","RA_OF_ASC_NODE":"187.4077","GP_ID":"195192933","MEAN_ELEMENT_THEORY":"SGP4","PERIAPSIS":"546.339","SITE":"AFETR","OBJECT_NAME":"STARLINK-1869","OBJECT_ID":"2020-088AK","MEAN_MOTION_DOT":"-0.00000297","BSTAR":"-0.00000101910000","MEAN_ANOMALY":"290.6175","TIME_SYSTEM":"UTC","EPOCH":"2022-02-02T16:34:17.096160","REF_FRAME":"TEME","PERIOD":"95.593","ELEMENT_SET_NO":"999","APOAPSIS":"548.168","CLASSIFICATION_TYPE":"U","RCS_SIZE":"LARGE","TLE_LINE2":"2 47155  53.0551 187.4077 0001320  69.4955 290.6175 15.06386969 66219","MEAN_MOTION_DDOT":"0.0000000000000","COUNTRY_CODE":"US","MEAN_MOTION":"15.06386969","ECCENTRICITY":"0.00013200","CENTER_NAME":"EARTH","ARG_OF_PERICENTER":"69.4955","LAUNCH_DATE":"2020-11-25"}];
